1 21574U 91050A   95156.80352803 0.00000043  00000+0  23420-4 0  1633
2 21574  98.5506 231.2850 0001171  83.8344 276.2974 14.32247183203428
1 21574U 91050A   95157.78157245 0.00000071  00000+0  33819-4 0  1694
2 21574  98.5508 232.2492 0001147  88.3847 271.7488 14.32247631203567
1 21574U 91050A   95158.75961649  .00000046  00000-0  33103-4 0  1591
2 21574  98.5509 233.2138 0001140  86.0615 274.0692 14.32247785203706
1 21574U          95158.75961649 0.00000046  00000+0  33103-4 0  1595
2 21574  98.5509 233.2138 0001140  86.0615 274.0692 14.32247785203706
1 21574U 91050A   95159.24863883 0.00000070  00000+0  33606-4 0  1614
2 21574  98.5509 233.6958 0001139  84.2884 275.8430 14.32247889203777
1 21574U 91050A   95160.15682223 0.00000079  00000+0  36752-4 0  1662
2 21574  98.5506 234.5913 0001177  87.9791 272.1527 14.32248229203905
1 21574U 91050A   95161.20472855 0.00000050  00000+0  25807-4 0  1733
2 21574  98.5507 235.6256 0001340  91.2470 268.8873 14.32247862204057
1 21574U 91050A   95162.11291261 0.00000064  00000+0  31169-4 0  1771
2 21574  98.5507 236.5205 0001324  88.4878 271.6482 14.32248181204180
1 21574U 91050A   95162.18277241  .00000042  00000-0  31651-4 0  1605
2 21574  98.5507 236.5895 0001322  87.8435 272.2901 14.32248208204199
1 21574U          95162.18277241 0.00000042  00000+0  31651-4 0  1609
2 21574  98.5507 236.5895 0001322  87.8435 272.2901 14.32248208204199
1 21574U 91050A   95163.16081656 0.00000092  00000+0  41724-4 0  1625
2 21574  98.5507 237.5536 0001318  85.0792 275.0582 14.32248717204330
1 21574U 91050A   95164.20872013 0.00000087  00000+0  39523-4 0  1680
2 21574  98.5509 238.5868 0001300  83.0736 277.0605 14.32248865204486
1 21574U 91050A   95165.18676327  .00000073  00000-0  43147-4 0  1614
2 21574  98.5510 239.5513 0001326  81.7068 278.4267 14.32249192204626
1 21574U 91050A   95165.18676327 0.00000096  00000+0  43146-4 0  1730
2 21574  98.5510 239.5512 0001326  81.7068 278.4267 14.32249192204625
1 21574U 91050A   95166.16480674 0.00000094  00000+0  42248-4 0  1670
2 21574  98.5510 240.5154 0001302  79.7566 280.3764 14.32249389204760
1 21574U 91050A   95167.21271129 0.00000094  00000+0  42248-4 0  1715
2 21574  98.5505 241.5498 0001416  81.1159 279.0189 14.32249546204915
1 21574U 91050A   95168.12089436 0.00000094  00000+0  42248-4 0  1736
2 21574  98.5505 242.4453 0001348  75.9151 284.2192 14.32249763205041
1 21574U 91050A   95168.19075438  .00000070  00000-0  42249-4 0  1624
2 21574  98.5505 242.5142 0001349  75.7994 284.3339 14.32249777205051
1 21574U          95168.19075438 0.00000070  00000+0  42249-4 0  1628
2 21574  98.5505 242.5142 0001349  75.7994 284.3339 14.32249777205051
1 21574U 91050A   95169.23865762 0.00000094  00000+0  42248-4 0  1687
2 21574  98.5507 243.5473 0001317  74.2660 285.8668 14.32250000205209
1 21574U 91050A   95170.21670107 0.00000094  00000+0  42248-4 0  1741
2 21574  98.5509 244.5116 0001287  74.1956 285.9369 14.32250120205346
1 21574U          95171.19474429 0.00000070  00000+0  42249-4 0  1636
2 21574  98.5507 245.4754 0001400  73.4821 286.6517 14.32250312205483
1 21574U 91050A   95171.19474432  .00000070  00000-0  42249-4 0  1636
2 21574  98.5504 245.4754 0001403  68.6418 291.4916 14.32250362205483
1 21574U 91050A   95171.19474432 0.00000094  00000+0  42248-4 0  1854
2 21574  98.5504 245.4753 0001403  68.6418 291.4916 14.32250363205483
1 21574U 91050A   95172.24264735 0.00000094  00000+0  42248-4 0  1720
2 21574  98.5503 246.5081 0001383  66.1553 293.9774 14.32250571205635
1 21574U 91050A   95173.22069036 0.00000093  00000+0  42248-4 0  1837
2 21574  98.5504 247.4726 0001359  64.4915 295.6408 14.32250721205773
1 21574U 91050A   95174.19873282 0.00000094  00000+0  42248-4 0  1897
2 21574  98.5502 248.4365 0001331  60.7495 299.3819 14.32250934205912
1 21574U 91050A   95174.19873286  .00000070  00000-0  42249-4 0  1640
2 21574  98.5502 248.4366 0001331  60.7647 299.3669 14.32250933205914
1 21574U          95174.19873286 0.00000070  00000+0  42249-4 0  1644
2 21574  98.5502 248.4366 0001331  60.7647 299.3669 14.32250933205914
1 21574U 91050A   95175.10691534 0.00000094  00000+0  42248-4 0  1718
2 21574  98.5501 249.3315 0001318  57.1038 303.0271 14.32251100206040
1 21574U 91050A   95176.22467798 0.00000077  00000+0  35878-4 0  1818
2 21574  98.5501 250.4340 0001238  74.7848 285.3423 14.32250743206207
1 21574U          95177.20272150 0.00000049  00000+0  34257-4 0  1659
2 21574  98.5503 251.3983 0001201  71.6941 288.4374 14.32250852206347
1 21574U 91050A   95177.20272150  .00000049  00000-0  34257-4 0  1655
2 21574  98.5503 251.3983 0001201  71.6941 288.4374 14.32250852206347
1 21574U 91050A   95177.27258166 0.00000071  00000+0  33739-4 0  1662
2 21574  98.5503 251.4671 0001206  71.4850 288.6461 14.32250847206358
1 21574U 91050A   95178.25062386 0.00000075  00000+0  35252-4 0  1743
2 21574  98.5504 252.4313 0001188  70.2022 289.9287 14.32251062206495
1 21574U 91050A   95179.29852630 0.00000068  00000+0  32620-4 0  1857
2 21574  98.5502 253.4643 0001192  69.1681 290.9626 14.32251188206648
1 21574U 91050A   95179.36838652  .00000045  00000-0  32736-4 0  1868
2 21574  98.5502 253.5333 0001194  69.1052 291.0260 14.32251204206655
1 21574U 91050A   95179.78754742  .00000039  00000-0  30640-4 0  1899
2 21574  98.5502 253.9465 0001194  68.2130 291.9174 14.32251215206714
1 21574U 91050A   95180.20670842  .00000040  00000-0  30930-4 0  1665
2 21574  98.5502 254.3598 0001186  67.2672 292.8637 14.32251290206770
1 21574U 91050A   95180.20670842  .00000040  00000-0  30930-4 0  1968
2 21574  98.5502 254.3598 0001186  67.2672 292.8637 14.32251290206770
1 21574U 91050A   95180.34642871  .00000039  00000-0  30764-4 0  1675
2 21574  98.5502 254.4975 0001185  66.7722 293.3586 14.32251309206791
1 21574U 91050A   95180.69572946  .00000039  00000-0  30742-4 0  1696
2 21574  98.5502 254.8418 0001187  65.9162 294.2145 14.32251368206840
1 21574U 91050A   95181.18475042  .00000040  00000-0  30979-4 0  1717
2 21574  98.5502 255.3237 0001188  64.4463 295.6842 14.32251456206919
1 21574U 91050A   95181.53405215 -.00000005  00000-0  14293-4 0  1769
2 21574  98.5504 255.6685 0001151  62.3202 297.8095 14.32251021206966
1 21574U 91050A   95181.88335365 -.00000019  00000-0  92750-5 0  1822
2 21574  98.5509 256.0129 0001438  73.3180 286.8115 14.32250585207016
1 21574U 91050A   95182.37237590 -.00000031  00000-0  45587-5 0  1671
2 21574  98.5509 256.4954 0001556  79.5929 280.5404 14.32250380207088
1 21574U 91050A   95182.79153757 -.00000031  00000-0  45587-5 0  1680
2 21574  98.5490 256.9099 0001546  87.7973 272.3052 14.32242709207142
1 21574U 91050A   95183.00112581 -.00000031  00000-0  45587-5 0  1696
2 21574  98.5494 257.1144 0001595  71.3357 288.7978 14.32243109207175
1 21574U 91050A   95183.21070431  .00001889  00000-0  71652-3 0  1721
2 21574  98.5506 257.3247 0001612 101.2393 258.8973 14.32248318207202
1 21574U 91050A   95183.62986765  .00000848  00000-0  33053-3 0  1741
2 21574  98.5500 257.7375 0001530  93.9684 266.1646 14.32246387207260
1 21574U 91050A   95183.69972779  .00001150  00000-0  44267-3 0  1777
2 21574  98.5501 257.8061 0001496  97.4600 262.6751 14.32247444207276
1 21574U 91050A   95184.18874988  .00001133  00000-0  43648-3 0  1790
2 21574  98.5502 258.2879 0001500  96.8296 263.3051 14.32248559207346
1 21574U 91050A   95184.18875003  .00001133  00000-0  43625-3 0  1705
2 21574  98.5502 258.2879 0001500  96.8613 263.2742 14.32248557207343
1 21574U          95184.18875003 0.00001133  00000+0  43625-3 0  1709
2 21574  98.5502 258.2879 0001500  96.8613 263.2742 14.32248557207343
1 21574U 91050A   95184.18875003  .00001461  00000-0  55805-3 0  1713
2 21574  98.5504 258.2869 0001469  90.7448 269.3898 14.32249270207349
1 21574U 91050A   95184.74763399  .00000673  00000-0  26595-3 0  1717
2 21574  98.5503 258.8381 0001487  91.3909 268.7443 14.32247598207421
1 21574U 91050A   95184.74763399  .00000673  00000-0  26595-3 0  1751
2 21574  98.5503 258.8381 0001487  91.3909 268.7443 14.32247598207421
1 21574U 91050A   95185.23665715  .00000423  00000-0  17319-3 0  1745
2 21574  98.5502 259.3199 0001514  90.6418 269.4939 14.32247136207494
1 21574U 91050A   95185.37637859  .00000131  00000-0  64931-4 0  1769
2 21574  98.5501 259.4577 0001490  89.4530 270.6805 14.32245896207518
1 21574U 91050A   95185.79554156  .00000198  00000-0  89728-4 0  1790
2 21574  98.5508 259.8722 0001655  99.3138 260.8195 14.32245620207572
1 21574U 91050A   95186.21470452  .00000254  00000-0  11027-3 0  1850
2 21574  98.5508 260.2855 0001644  98.2798 261.8573 14.32246152207632
1 21574U 91050A   95186.35442531  .00000154  00000-0  73458-4 0  1869
2 21574  98.5506 260.4228 0001595  95.9667 264.1668 14.32245649207653
1 21574U 91050A   95186.63386761  .00000154  00000-0  73372-4 0  1722
2 21574  98.5506 260.6983 0001595  95.1487 264.9879 14.32245758207692
1 21574U 91050A   95186.63386761  .00000154  00000-0  73372-4 0  1878
2 21574  98.5506 260.6983 0001595  95.1487 264.9879 14.32245758207692
1 21574U 91050A   95187.19275032  .00000240  00000-0  10505-3 0  1760
2 21574  98.5506 261.2490 0001579  93.6983 266.4382 14.32246536207778
1 21574U 91050A   95187.33247115  .00000195  00000-0  88430-4 0  1781
2 21574  98.5504 261.3865 0001568  92.2992 267.8358 14.32246338207796
1 21574U 91050A   95187.75163409  .00000146  00000-0  70271-4 0  1814
2 21574  98.5503 261.7997 0001549  90.5064 269.6296 14.32246215207857
1 21574U 91050A   95188.17079643  .00000151  00000-0  72058-4 0  1830
2 21574  98.5503 262.2129 0001551  90.0054 270.1308 14.32246404207915
1 21574U 91050A   95188.38037783  .00000069  00000-0  41868-4 0  1879
2 21574  98.5502 262.4193 0001471  86.6594 273.4734 14.32245925207947
1 21574U 91050A   95188.79954081  .00000020  00000-0  23714-4 0  1904
2 21574  98.5502 262.8326 0001470  86.0393 274.0941 14.32245679208000
1 21574U 91050A   95189.14884453  .00000032  00000-0  27974-4 0  1937
2 21574  98.5504 263.1767 0001573  84.7372 275.3993 14.32245358208051
